[{"OBJECT_NAME":"OBJECT C","OBJECT_ID":"2024-105C","EPOCH":"2026-03-09T23:58:12.857088","MEAN_MOTION":15.19285938,"ECCENTRICITY":0.00116684,"INCLINATION":97.5862,"RA_OF_ASC_NODE":85.5433,"ARG_OF_PERICENTER":201.9597,"MEAN_ANOMALY":158.1139,"EPHEMERIS_TYPE":0,"CLASSIFICATION_TYPE":"U","NORAD_CAT_ID":59919,"ELEMENT_SET_NO":999,"REV_AT_EPOCH":9810,"BSTAR":0.00030616598,"MEAN_MOTION_DOT":6.401e-5,"MEAN_MOTION_DDOT":0},{"OBJECT_NAME":"ICUBE-1","OBJECT_ID":"2013-066S","EPOCH":"2026-03-09T21:15:50.265216","MEAN_MOTION":15.23110621,"ECCENTRICITY":0.00159988,"INCLINATION":97.5653,"RA_OF_ASC_NODE":53.5484,"ARG_OF_PERICENTER":327.1969,"MEAN_ANOMALY":32.8272,"EPHEMERIS_TYPE":0,"CLASSIFICATION_TYPE":"U","NORAD_CAT_ID":39432,"ELEMENT_SET_NO":999,"REV_AT_EPOCH":66928,"BSTAR":0.00081477483,"MEAN_MOTION_DOT":0.00019249,"MEAN_MOTION_DDOT":0}]
